cityCode,cityName,wellnessCentreCode,wellnessCentreName,wellnessCentreAddress,doctorCount,category,wellnessCentreContactNo,longitude,latitude
011,DELHI/NCR,AY19,"Dev Nagar (Ayurvedic)",NA,2,ayurvedic,25860275,77.184028625488,28.654448
011,DELHI/NCR,AY61,"Janak Puri-I (Ayurvedic)",NA,2,ayurvedic,25534868,77.089332580566,28.621658
011,DELHI/NCR,AY67,"Laxmi Nagar Ayurvedic",NA,2,ayurvedic,"011-22543108/ 22466544",77.277275085449,28.630713
011,DELHI/NCR,AY80,"Paschim Vihar (Ayurvedic)",NA,3,ayurvedic,25171213,77.112274169922,28.645285
011,DELHI/NCR,D15,"LAXMIBAI NAGAR",NA,4,alopathic,011-26874643,77.206520080566,28.575865
011,DELHI/NCR,D18,"Pusa Road",NA,5,alopathic,"28758071, 28754318",77.18953704834,28.644466
011,DELHI/NCR,D27,"President Estate",NA,3,alopathic,"23094777 23092990",77.199020385742,28.6243
011,DELHI/NCR,D34,"Telegraph Lane",NA,3,alopathic,"23326601 23318949",77.221832275391,28.621157
011,DELHI/NCR,D36A,Dwarka,NA,7,alopathic,25056722,77.08275604248,28.59262
011,DELHI/NCR,D50,"R K PURAM-III",NA,4,alopathic,,77.17342376709,28.565052
011,DELHI/NCR,D52,"RK Puram IV,Sec8",NA,4,alopathic,011-26173988,77.166931152344,28.571602
011,DELHI/NCR,D56,"GKG WC ",NA,5,alopathic,011-22512866,77.284027099609,28.65882
011,DELHI/NCR,D72,"KASTURBA NAGAR-II",NA,3,alopathic,011-24622736,77.228942871094,28.575907
011,DELHI/NCR,D76,"Kali Bari",NA,5,alopathic,23743142,77.200248718262,28.62901
011,DELHI/NCR,D79,"Vivek Vihar",NA,4,alopathic,011-22143551,77.318252563477,28.663721
011,DELHI/NCR,D82,"Sunder Vihar",NA,4,alopathic,,77.102737426758,28.669186
011,DELHI/NCR,D9,"Aliganj,LodiRoad1",NA,5,alopathic,24611538,77.218063354492,28.580954
011,DELHI/NCR,D90,"SARITA VIHAR",NA,5,alopathic,011-26940651,77.300666809082,28.53862
011,DELHI/NCR,D94,Sahibabad,NA,5,alopathic,0120-2630066,77.350128173828,28.684004
011,DELHI/NCR,HO7,"Timarpur Homeopathic",NA,2,homeo,011-23813808,77.221664428711,28.706379
0141,JAIPUR,JA2,"JANTA COLONY",NA,2,alopathic,,75.836952209473,26.907198
0141,JAIPUR,JA5,"Jyoti Nagar",NA,6,alopathic,0141-2743263,75.795593261719,26.89531
0141,JAIPUR,JA7,"VIDHYADHAR NAGAR",NA,5,alopathic,0141-2335850,75.785720825195,26.966885
020,PUNE,PU08,"Bajirao Road",NA,3,alopathic,020-24471602,73.874549865723,18.55219
022,MUMBAI,MU23,Parel,NA,2,alopathic,022–24187276,72.843238830566,18.99578
022,MUMBAI,MU8,Koliwada,NA,8,alopathic,022–24013694,72.86637878418,19.029572
022,MUMBAI,MU9,"CLI Sion",NA,1,alopathic,022–24081616,72.866775512695,19.04969
033,KOLKATA,KO12,"Salt Lake AF",NA,2,alopathic,23374635,88.421539306641,22.598293
033,KOLKATA,KO13,Airport,NA,7,alopathic,25119442,88.426300048828,22.63621
033,KOLKATA,KO14,"Lake Town",NA,3,alopathic,25222137,88.402359008789,22.608047
033,KOLKATA,KO16,"Salt Lake EB",NA,2,alopathic,23344849,88.407157897949,22.586054
03592,GANGTOK,GK1,Gangtok,NA,1,alopathic,,88.606460571289,27.344988
0361,GUWAHATI,GT3,Gotanagar,NA,2,alopathic,0361-2670255,91.674942016602,26.13751
0364,SHILLONG,SH1,"Wellness Centre Laitumkhrah",NA,2,alopathic,0364-2501569,91.902336120605,25.567507
040,HYDERABAD,HY2,Humayunnagar,NA,6,alopathic,040-23531833,78.439331054688,17.38202
040,HYDERABAD,HY4,Begumpet,NA,6,alopathic,040-27904259,78.472442626953,17.445042
040,HYDERABAD,HY5,Himayatnagar,NA,6,alopathic,040-23220454,78.477882385254,17.40563
040,HYDERABAD,HY7,Malakpet,NA,6,alopathic,040-27529090,78.501121520996,17.371193
040,HYDERABAD,HY9,Alwal,NA,5,alopathic,040-27972563,78.506202697754,17.50906
044,CHENNAI,CH05,GUINDY,NA,4,alopathic,044-23458405,80.221733093262,13.010337
044,CHENNAI,CH07,MEENAMBAKKAM,NA,5,alopathic,044-23458407,80.176445007324,12.980883
044,CHENNAI,CH13,TRIPLICANE,NA,1,alopathic,044-23458413,80.286636352539,13.069741
0512,KANPUR,KN1,"Saket Nagar",NA,4,alopathic,0512-2666240,80.317657470703,26.435453
0512,KANPUR,KN6,"Raksha Vihar",NA,4,alopathic,0512-2424311,80.361404418945,26.422136
0512,KANPUR,KN8,"Azad Nagar",NA,3,alopathic,0512-2560272,80.306259155273,26.500862
0522,LUCKNOW,LK10,"AYURVEDIC LUCKNOW",NA,2,ayurvedic,,80.947494506836,26.83356
0522,LUCKNOW,LK5,Lucknow5,NA,6,alopathic,0522-2235139,80.947494506836,26.83356
0532,ALLAHABAD,AL05,"Kendranchal Colony",NA,5,alopathic,,81.777359008789,25.454859
0532,ALLAHABAD,ALA1,"AYURVEDIC UNIT",NA,2,ayurvedic,,81.830924987793,25.449434
0712,NAGPUR,NP3,"PANCH PAOLI",NA,4,alopathic,,79.100326538086,21.173529
0712,NAGPUR,NP5,"MEDICAL SQUARE",NA,3,alopathic,,79.097015380859,21.131998
0712,NAGPUR,NP6,"SHANKAR NAGAR",NA,3,alopathic,0712-2249781,79.056648254395,21.134077
0712,NAGPUR,NPA2,"AYURVEDIC WC No. 2 NAGPUR",NA,2,ayurvedic,,79.057464599609,21.158367
0731,INDORE,IN1,INDORE1,NA,2,alopathic,,75.885894775391,22.711237
079,AHMEDABAD,AH09,Maninagar,NA,4,alopathic,"079 25467055",72.601043701172,22.998863
080,BENGALURU,BA03,"Wellness Center Basavangudi",NA,4,alopathic,"080 2667300",77.547332763672,12.935114
080,BENGALURU,BA14,"KA HOMOEO SHIVAJINAGAR",NA,2,homeo,,77.603233337402,12.980467
011,DELHI/NCR,999,"Virtual Dispensary",NA,13,alopathic,,0,0
011,DELHI/NCR,AY60,"Kingsway Camp Ayurvedic",NA,2,ayurvedic,011-27459411,77.201965332031,28.698978
011,DELHI/NCR,D11,LAJPATNAGAR,NA,4,alopathic,011-29816439,77.239105224609,28.572266
011,DELHI/NCR,D2,"Pandara Road",NA,4,alopathic,"23385040 23073054",77.227401733398,28.602995
011,DELHI/NCR,D40,Jangpura,NA,3,alopathic,011-24312213,77.245330810547,28.582262
011,DELHI/NCR,D42,"Kalkaji – I",NA,7,alopathic,011-26430851,77.258293151855,28.54032
011,DELHI/NCR,D43,"R.K.Puram I,Sec 4",NA,5,alopathic,011-26175132,77.179229736328,28.56311
011,DELHI/NCR,D44,"Dr. Zakir Hussain Road",NA,6,alopathic,23383724,77.234680175781,28.605564
011,DELHI/NCR,D45,"New Rajinder Ngr",NA,5,alopathic,28742850,77.184494018555,28.635836
011,DELHI/NCR,D51,"CHITRA GUPTA ROAD",NA,6,alopathic,,77.208213806152,28.642258
011,DELHI/NCR,D59,"Rajpur Road",NA,2,alopathic,011-23973646,77.216262817383,28.66859
011,DELHI/NCR,D61,Janakpuri-I,NA,11,alopathic,25551434,77.089332580566,28.621658
011,DELHI/NCR,D62,"Ashok Vihar",NA,4,alopathic,27242028,77.163703918457,28.693634
011,DELHI/NCR,D67,Laxminagar,NA,9,alopathic,"011-22543108 011-22466544",77.277275085449,28.630802
011,DELHI/NCR,D68,Ghaziabad,NA,9,alopathic,0120-2789969,77.463691711426,28.68051
011,DELHI/NCR,D70,Faridabad,NA,6,alopathic,0129-2412729,77.297737121582,28.405228
011,DELHI/NCR,D71,MUNIRKA,NA,5,alopathic,011-26741983,77.17024230957,28.55014
011,DELHI/NCR,D80,"Paschim Vihar",NA,5,alopathic,25268410,77.102836608887,28.669004
011,DELHI/NCR,D84,"Yamuna Vihar",NA,6,alopathic,011-22565516,77.267509460449,28.701345
011,DELHI/NCR,D85,Noida ,NA,9,alopathic,0120-2532312,77.336112976074,28.599594
011,DELHI/NCR,D86,Rohini-7,NA,6,alopathic,27040169,77.118553161621,28.704813
011,DELHI/NCR,D92,"Gurgaon, Sec-55",NA,10,alopathic,0124-2578235,77.11043548584,28.426765
011,DELHI/NCR,D98,"Naraina Vihar",NA,4,alopathic,25778775,77.143531799316,28.624996
011,DELHI/NCR,HO24,"HOMEOPATHIC WC KASTURBA NAGAR-I",NA,2,homeo,"011-24622867, 24693551",77.249351501465,28.565622
011,DELHI/NCR,HO69,"HOMEOPATHIC WC RKP-III",NA,3,homeo,,77.178848266602,28.554304
011,DELHI/NCR,PHA,"PHA (ANNEXE)",NA,31,alopathic,,77.208457946777,28.6206
0121,MEERUT,MR6,"Lekha Nagar",NA,2,alopathic,0121-2647895,77.706260681152,29.01349
0135,DHERADUN,DD2,"P & T Wellness Centre",NA,2,alopathic,0135-2653166,78.01203918457,30.310898
0141,JAIPUR,JA1,"Chaura Rasta",NA,2,alopathic,0141-2329927,75.821136474609,26.918316
020,PUNE,PU05,"Ganeshkhind Road",NA,5,alopathic,020-25652045,73.821029663086,18.551151
020,PUNE,PU09,G.T.Road,NA,2,alopathic,020-26360020,73.879707336426,18.515316
020,PUNE,PU10,"PUNE Polyclinic",NA,7,alopathic,,73.859367370605,18.494251
020,PUNE,PUH3,"Homeopathic Camp Pune",NA,2,homeo,,73.87451171875,18.504625
022,MUMBAI,MU1,"CGO New Marine Lines",NA,17,alopathic,"022– 22018799",72.827964782715,18.938894
022,MUMBAI,MU17,Bhandup,NA,4,alopathic,022–25619655,72.941078186035,19.142601
022,MUMBAI,MU19,Mulund,NA,3,alopathic,022–25616267,72.944244384766,19.172121
022,MUMBAI,MU26,Seepz,NA,2,alopathic,022–28365751,72.875511169434,19.128706
022,MUMBAI,MU28,Juhu,NA,7,alopathic,022–26601744,72.857269287109,19.103073
022,MUMBAI,MU3,Worli,NA,2,alopathic,022–24932909,72.813682556152,19.003506
022,MUMBAI,MU6,Ghatkopar,NA,9,alopathic,022–25149229,72.909286499023,19.090258
033,KOLKATA,KO10,"BBD Bag",NA,5,alopathic,22622030,88.349876403809,22.566198
033,KOLKATA,KO11,Santagachi,NA,4,alopathic,26571526,88.280181884766,22.593863
033,KOLKATA,KO18,"Salt Lake IC",NA,10,alopathic,23353427,88.414482116699,22.571302
033,KOLKATA,KO6,"Regent Estate",NA,4,alopathic,24125528,88.399871826172,22.51736
040,HYDERABAD,HY10,"AG’S Colony",NA,7,alopathic,040-23810449,78.4306640625,17.449778
040,HYDERABAD,HY12,Dilsukhnagar,NA,4,alopathic,040-24046333,78.585098266602,17.363522
040,HYDERABAD,HY3,Secunderabad,NA,4,alopathic,040-27708898,78.493865966797,17.423944
0413,PONDICHERRY,PD1,PUDUCHERRY,NA,2,alopathic,,79.796195983887,11.939653
044,CHENNAI,CH01,ADYAR,NA,3,alopathic,044-23458401,80.253433227539,12.991768
044,CHENNAI,CH02,"ANNA NAGAR",NA,7,alopathic,044-23458402,80.20435333252,13.088988
044,CHENNAI,CH08,NANDAMBAKKAM,NA,1,alopathic,044-23458408,80.195114135742,13.01473
044,CHENNAI,CH10,PERAMBUR,NA,4,alopathic,,80.231666564941,13.116081
044,CHENNAI,CH11,"RA PURAM",NA,1,alopathic,044-23458411,80.259689331055,13.021473
0471,TRIVANDRUM,TR1,Kesavadasapuram,NA,4,alopathic,0471-2443452,76.940719604492,8.533119
0471,TRIVANDRUM,TR2,Sasthamangalam,NA,2,alopathic, 0471-2728110,76.94612121582,8.533302
0512,KANPUR,KN9,"Ratan Lal Nagar",NA,6,alopathic,0512-2283399,80.287391662598,26.444014
0522,LUCKNOW,LK1,"Lucknow 1",NA,8,alopathic,,80.99488067627,26.863432
0522,LUCKNOW,LK4,Lucknow4,NA,3,alopathic,0522-2421931,80.884719848633,26.843386
0522,LUCKNOW,LK8,"PMG Office Hazaratganj",NA,3,alopathic,0522-2230077,80.915664672852,26.86548
0532,ALLAHABAD,AL01,"Jawahar Lal Nehru Road",NA,4,alopathic,0532-2468188,81.863235473633,25.451668
0532,ALLAHABAD,AL02,Drummond,NA,5,alopathic,0532-2624435,81.82738494873,25.450512
0532,ALLAHABAD,AL04,"New Katra",NA,3,alopathic,0532-2642457,81.853408813477,25.47363
0532,ALLAHABAD,AL06,"Leader Road",NA,2,alopathic,0532-403822,81.83309173584,25.443272
0674,BHUBANESHWAR,BH2,"KHARAVELA NAGAR",NA,1,alopathic,0674-2393545,85.835983276367,20.272116
0712,NAGPUR,NP2A,"Seminary Hills",NA,4,alopathic,0712-2511398,79.057510375977,21.15836
0712,NAGPUR,NP4,Itwari,NA,2,alopathic,"0712- 2564600",79.118995666504,21.151142
0712,NAGPUR,NP7,Sitabuldi,NA,4,alopathic,"0712- 2565169",79.080551147461,21.15101
0712,NAGPUR,NP9,Sakkardara,NA,2,alopathic,"0712- 2749379",79.116355895996,21.130936
0712,NAGPUR,NPA5,"AYURVEDIC WC No. 5 NAGPUR",NA,2,ayurvedic,,79.097015380859,21.131998
0712,NAGPUR,NPH2,"HOMEOPATHIC WC No. 2 NAGPUR",NA,3,homeo,,79.057464599609,21.158367
0712,NAGPUR,NPPO,"NAGPUR POLYCLINIC",NA,15,alopathic,,79.067153930664,21.169594
0755,BHOPAL,BP1,Jahangirabad,NA,5,alopathic,0755-2765071,77.416221618652,23.245274
0761,JABALPUR,JB4,"Head Post Office",NA,5,alopathic,2629460,79.955154418945,23.161499
079,AHMEDABAD,AHA1,"AYURVEDIC ASHRAM ROAD",NA,4,ayurvedic,,72.569221496582,23.035265
079,AHMEDABAD,AHA8,"AYURVEDIC LALDARWAJA",NA,3,ayurvedic,,72.569198608398,23.035217
079,AHMEDABAD,AHH1,"HOMEO ASHRAM ROAD",NA,1,homeo,,72.569221496582,23.035244
080,BENGALURU,BA11,"CGHS Polyclinic",NA,5,alopathic,"080 25589225",77.620819091797,12.92536
080,BENGALURU,BA12,"KA AYUR1 BASAVANAGUDI",NA,1,ayurvedic,,77.547073364258,12.934715
011,DELHI/NCR,AY3,"Delhi Cantt (Ayurvedic)",NA,3,ayurvedic,25692914,77.120765686035,28.589346
011,DELHI/NCR,AY57,"R.K.Puram-V,(Sec-12)",NA,3,ayurvedic,011-26175146,77.175804138184,28.573278
011,DELHI/NCR,D1,"Gole Market",NA,5,alopathic,23743810,77.202735900879,28.634432
011,DELHI/NCR,D17A,"VIKAS PURI",NA,7,alopathic,28533441,77.065147399902,28.63281
011,DELHI/NCR,D21,"Netaji Nagar",NA,4,alopathic,011-24670222,77.186492919922,28.572374
011,DELHI/NCR,D22A,"Greater Noida",NA,8,alopathic,0120-2447126,77.521240234375,28.45142
011,DELHI/NCR,D26,"Tilak Nagar",NA,5,alopathic,25998900,77.09846496582,28.638773
011,DELHI/NCR,D3,"Delhi Cantt",NA,7,alopathic,25692914,77.119911193848,28.590773
011,DELHI/NCR,D47,"HAUZ KHAS",NA,5,alopathic,011-26567844,77.202102661133,28.55045
011,DELHI/NCR,D57,"RK Puram V,Sec12",NA,4,alopathic,011-26170472,77.175827026367,28.57319
011,DELHI/NCR,D60,"Kingsway Camp",NA,12,alopathic,011-27459411,77.198348999023,28.688356
011,DELHI/NCR,D74,Janakpuri-II,NA,3,alopathic,25619345,77.089332580566,28.621658
011,DELHI/NCR,D77,"Mayur Vihar",NA,7,alopathic,011-22751321,77.29402923584,28.604736
011,DELHI/NCR,D8,"Chandni Chowk",NA,3,alopathic,23866892,77.235252380371,28.657497
011,DELHI/NCR,D81,Pitampura,NA,3,alopathic,27344481,77.115119934082,28.691742
011,DELHI/NCR,D87,"Dilshad Garden ",NA,5,alopathic,22596489,77.313598632812,28.68036
011,DELHI/NCR,D91,"VASANT KUNJ",NA,5,alopathic,011-26123790,77.169532775879,28.522001
011,DELHI/NCR,D96,"Vasant Vihar",NA,2,alopathic,011-26146573,77.162887573242,28.55403
011,DELHI/NCR,D97,Indirapuram,NA,6,alopathic,0120-2770973,77.339797973633,28.649866
011,DELHI/NCR,HO42,"HOMEOPATHIC WC KALKAJI-I",NA,2,homeo,011-26430851,77.260032653809,28.5397
011,DELHI/NCR,RML,"DR. RML HOSPITAL",NA,50,alopathic,,77.198722839355,28.624563
011,DELHI/NCR,UN49,"Shahdara Unani",NA,2,unani,011-22583766,77.298797607422,28.680838
0121,MEERUT,MR1,"Abu Lane",NA,4,alopathic,0121-2661739,77.702308654785,28.997236
0121,MEERUT,MR2,"Shastri Nagar",NA,2,alopathic,0121-2641320,77.732116699219,28.95477
0121,MEERUT,MRH3,"Vijay Nagar Meerut",NA,2,homeo,,77.709587097168,28.986092
0141,JAIPUR,JA6,"GSI Colony",NA,8,alopathic,0141-2755732,75.818283081055,26.84535
0191,JAMMU,JT01,Jammu,NA,4,alopathic,0194-2520777,74.858489990234,32.72272
020,PUNE,PU01,Akurdi,NA,4,alopathic,020-27640130,73.764999389648,18.651558
020,PUNE,PU03,Camp,NA,2,alopathic,020-26455163,73.874458312988,18.50474
020,PUNE,PU04,"Kasba Peth",NA,1,alopathic,020-25652045,73.859901428223,18.51888
020,PUNE,PU06,"Range Hills",NA,5,alopathic,020-25819776,73.841209411621,18.550385
022,MUMBAI,MU20,Kandivali,NA,7,alopathic,022–28677353,72.823104858398,19.215654
022,MUMBAI,MU24,"KUJURMARG, POWAL",NA,6,alopathic,022–25784026,72.923355102539,19.126501
022,MUMBAI,MU27,"Nepean Sea Road",NA,1,alopathic,022–23641816,72.800346374512,18.956367
022,MUMBAI,MU5,SANTAKRUZ,NA,8,alopathic,022–28210971,72.857276916504,19.103624
033,KOLKATA,KO17,Kudghat,NA,2,alopathic,24311328,88.347091674805,22.479055
033,KOLKATA,KO7,"B/ Kalighat",NA,5,alopathic,24641852,88.347503662109,22.522116
0361,GUWAHATI,GT2,Narengi,NA,4,alopathic,+919854046451,91.820793151855,26.175413
0361,GUWAHATI,GT5,Beharbari,NA,3,alopathic,7896020538,91.772834777832,26.115187
0381,AGARTALA,AG1,Agartala,NA,2,alopathic,,91.285575866699,23.862661
0512,KANPUR,KN5,Kendranchal,NA,3,alopathic,0512-2618122,80.342697143555,26.400698
0522,LUCKNOW,LK3,Lucknow3,NA,6,alopathic,0522-2421992,80.904441833496,26.79093
0522,LUCKNOW,LK7,"GOL Market",NA,6,alopathic,0522-2321432,80.959396362305,26.873436
0532,ALLAHABAD,AL03,"Kalyani Devi",NA,2,alopathic,0532-2242530,81.833854675293,25.42972
0532,ALLAHABAD,AL08,"CGHS Polyclinic Sangam Place",NA,7,alopathic,0532-2560578,81.830520629883,25.450197
0612,PATNA,PA4,"Boring Canal Road",NA,2,alopathic,0612-2532816,85.123092651367,25.61814
0755,BHOPAL,BP2,"Vasant Kunj",NA,5,alopathic,"0755- 2566977",77.434722900391,23.200207
0761,JABALPUR,JB1,"JABALPUR 1",NA,8,alopathic,,79.924438476562,23.161173
0761,JABALPUR,JB2,"I.B.M. Colony",NA,3,alopathic,"0761 2416805",79.910469055176,23.167952
079,AHMEDABAD,AH01,"Ashram Road",NA,4,alopathic,"079 26577393",72.569244384766,23.035246
079,AHMEDABAD,AH03,Navrangpura,NA,2,alopathic,"079 26430021",72.552833557129,23.0451
079,AHMEDABAD,AH08,Laldarwaja,NA,3,alopathic,"079 25506622",72.58381652832,23.027882
079,AHMEDABAD,AHA7,"AYURVEDIC GANDHI NAGAR",NA,2,ayurvedic,,72.648399353027,23.207758
080,BENGALURU,BA04,"Wellness Center Ulsoor",NA,5,alopathic,"080 25510759",77.625366210938,12.975879
080,BENGALURU,BA05,"Wellness Center Vijayanagara",NA,6,alopathic,"080 23351893",77.539962768555,12.973906
080,BENGALURU,BA10,"Wellness Center CV Raman Nagar DRDO",NA,7,alopathic,"080 25243236",77.662384033203,12.987225
080,BENGALURU,BA13,"KA AYUR2 DOMLUR",NA,2,ayurvedic,,77.640037536621,12.960297
080,BENGALURU,BA15,"KA UNANI SHIVAJINAGAR",NA,1,unani,,77.603302001953,12.980249
011,DELHI/NCR,AY40,"AYURVEDIC WC JUNG PURA",NA,2,ayurvedic,011-24312213,77.245262145996,28.582367
011,DELHI/NCR,AY63,"Sadiq Nagar",NA,2,ayurvedic,011-24623767,77.226783752441,28.554974
011,DELHI/NCR,AY73,"AYURVEDIC WC GURGAON SEC-5",NA,2,ayurvedic,0124-4064496,77.020248413086,28.48208
011,DELHI/NCR,AY76,"Kalibari (Ayur)",NA,2,ayurvedic,23363178,77.200057983398,28.629055
011,DELHI/NCR,AYHO,"AYURVEDIC HOSPITAL LODHI ROAD",NA,3,ayurvedic,,77.220359802246,28.582735
011,DELHI/NCR,D10,"Lodhi Road II",NA,5,alopathic,24611442,77.225112915039,28.58217
011,DELHI/NCR,D12,"KIDWAI NAGAR",NA,8,alopathic,,77.203475952148,28.5682
011,DELHI/NCR,D16,"Moti Bagh",NA,7,alopathic,011-24670333,77.178153991699,28.584455
011,DELHI/NCR,D29,"Nanak Pura",NA,5,alopathic,011-24670444,77.168724060059,28.58163
011,DELHI/NCR,D33A,"Jharoda Kalan",NA,5,alopathic,25315364,76.960342407227,28.639637
011,DELHI/NCR,D38,"West Patel Nagr",NA,4,alopathic,25882551,77.167007446289,28.651194
011,DELHI/NCR,D4,"Minto Road",NA,5,alopathic,23234625,77.227073669434,28.639399
011,DELHI/NCR,D46,"R K PURAM-II",NA,6,alopathic,011-26175323,77.172782897949,28.564442
011,DELHI/NCR,D49,Shahdara,NA,8,alopathic,011-22583766,77.298820495605,28.681366
011,DELHI/NCR,D5,Paharganj,NA,4,alopathic,"23587511 23561574",77.209381103516,28.64533
011,DELHI/NCR,D50A,"CBI COLONY",NA,1,alopathic,011-26141978,77.163307189941,28.557566
011,DELHI/NCR,D54,"Shakur Basti",NA,6,alopathic,27021102,77.115257263184,28.689352
011,DELHI/NCR,D55,Inderpuri,NA,3,alopathic,25836573,77.146148681641,28.635563
011,DELHI/NCR,D6,"Subzi Mandi",NA,3,alopathic,011-23655272,77.182983398438,28.67464
011,DELHI/NCR,D65,"M.B. Road",NA,6,alopathic,011-29564988,77.220932006836,28.523499
011,DELHI/NCR,D66,"Palam Colony",NA,6,alopathic,25035839,77.085929870605,28.590113
011,DELHI/NCR,D83,"Pragati Vihar",NA,5,alopathic,"24361522 24367843",77.231704711914,28.588785
011,DELHI/NCR,D88,"Shalimar Bagh",NA,4,alopathic,27486048,77.15461730957,28.70817
011,DELHI/NCR,D93,"SUPREME COURT",NA,18,alopathic,,77.238380432129,28.620775
011,DELHI/NCR,D95,"Noida Sec-82",NA,6,alopathic,0120-2568899,77.391777038574,28.529837
011,DELHI/NCR,HO19,"Dev Nagar (Homeo)",NA,3,homeo,25758888,77.184173583984,28.654589
011,DELHI/NCR,HO26,"Tilak Nagar (Homeo)",NA,2,homeo,25998900,77.09831237793,28.638943
011,DELHI/NCR,HO32,"South Avenue (Homeo)",NA,2,homeo,23017698,77.19864654541,28.608507
011,DELHI/NCR,HO48,"Hari Nagar (Homeo)",NA,2,homeo,28125518,77.106414794922,28.624872
011,DELHI/NCR,HO49,"HOMEOPATHIC WC SHAHDRA",NA,2,homeo,,77.299354553223,28.681932
011,DELHI/NCR,HO57,"HOMEOPATHIC WC RKP-XII",NA,3,homeo,,77.175849914551,28.573261
011,DELHI/NCR,HO67,"Laxmi Nagar Homeopathic",NA,2,homeo,"011-22543108/ 22466544",77.276947021484,28.630806
011,DELHI/NCR,UN98,"Naraina Vihar (Unani)",NA,2,unani,25778775,77.143447875977,28.624931
0121,MEERUT,MR3,"Vijay Nagar",NA,2,alopathic,0121-2640074,77.704414367676,28.98993
0121,MEERUT,MR4,"Kanker Khera",NA,6,alopathic,0121-2556394,77.684211730957,29.030275
0121,MEERUT,MRA1,"AbuLane Meerut",NA,2,ayurvedic,,77.702239990234,28.997238
0141,JAIPUR,JA3,"Bajaj Nagar",NA,5,alopathic,0141-2710084,75.80387878418,26.874372
0141,JAIPUR,JA4,"BANI PARK",NA,4,alopathic,0141-2207708,75.786041259766,26.926512
020,PUNE,PU07,Mukundnagar,NA,8,alopathic,020-24266402,72.856430053711,19.017027
020,PUNE,PUA7,"Ayurvedic Mukund Nagar",NA,1,ayurvedic,,73.857162475586,18.493698
022,MUMBAI,MU11,Byculla,NA,1,alopathic,022–23722150,72.835624694824,18.97616
022,MUMBAI,MU12,Ambarnath,NA,5,alopathic,0251–2600858,73.185966491699,19.212654
022,MUMBAI,MU14,WAKOLA,NA,2,alopathic,022–26650366,72.857559204102,19.08297
022,MUMBAI,MU21,"Sahar, Andheri (W)",NA,1,alopathic,022–28210959,72.859855651855,19.10255
033,KOLKATA,KO2,"Lake Area",NA,3,alopathic,24661733,88.358222961426,22.514097
033,KOLKATA,KO3,Doverlane,NA,6,alopathic,24619292,88.35807800293,22.518232
033,KOLKATA,KO5,Shyambazar,NA,3,alopathic,25556385,88.373489379883,22.599861
033,KOLKATA,KO9,"Mint Colony",NA,4,alopathic,24010558,88.319763183594,22.514448
0361,GUWAHATI,GT6,"GUWAHATI HOMEO 1",NA,4,homeo,,91.788162231445,26.146744
0385,IMPHAL,IM1,Imphal,NA,2,alopathic,,93.951591491699,24.797945
040,HYDERABAD,HY13,Tarnaka,NA,5,alopathic,040-27019223,78.558563232422,17.402079
040,HYDERABAD,HY8,Kanchanbagh,NA,8,alopathic,040-24340299,78.505882263184,17.337795
044,CHENNAI,CH03,AVADI,NA,7,alopathic,044-23458403,80.106117248535,13.1238575
044,CHENNAI,CH12,ROYAPURAM,NA,3,alopathic,044-23458412,80.294654846191,13.101272
0512,KANPUR,KN4,"Khapra Mohal",NA,3,alopathic,0512-2322924,80.35733795166,26.455675
0522,LUCKNOW,LK2,Lucknow2,NA,3,alopathic,0522-2613763,80.951431274414,26.886131
0532,ALLAHABAD,ALH1,"HOMEO UNIT",NA,2,homeo,,81.830924987793,25.449434
0612,PATNA,PA1,Budhmarg,NA,5,alopathic,0612-2221479,85.133659362793,25.607672
0612,PATNA,PA2,Kankarbagh,NA,3,alopathic,0612-2351484,85.153518676758,25.603031
0612,PATNA,PA5,"SURYANCHAL BHANDRA GHAT",NA,3,alopathic,,85.206169128418,25.60989
0651,RANCHI,RA2,"KANTA TOLI",NA,3,alopathic,0651-2530244,85.343315124512,23.364851
0674,BHUBANESHWAR,BH1,"OLD AG COLONY",NA,3,alopathic,0674-2393612,85.829437255859,20.279497
0712,NAGPUR,NP1,"Katol Road",NA,9,alopathic,0712-2581773,79.066459655762,21.169672
079,AHMEDABAD,AH04,Pragatinagar,NA,3,alopathic,"079 27478393",72.554763793945,23.066833
079,AHMEDABAD,AH05,Meghaninagar,NA,2,alopathic,"079 22680487",72.617980957031,23.054527
079,AHMEDABAD,AH07,Gandhingar,NA,3,alopathic,"079 23243433",72.648986816406,23.210667
080,BENGALURU,BA02,"Wellness Center Seshadripuram",NA,4,alopathic,"080 23311492",77.574111938477,12.98935
080,BENGALURU,BA06,"Wellness Center Jayanara",NA,7,alopathic,"080 26570202",77.579864501953,12.941909
080,BENGALURU,BA07,"Wellness Center Koramangala",NA,5,alopathic,"080 25539277",77.620819091797,12.92536
080,BENGALURU,BA09,"Wellnessd Center Gangenahalli",NA,4,alopathic,"080 23330320",77.587432861328,13.022677
0891,VISAKHAPATNAM,HYV,VISAKHAPATNAM,NA,5,alopathic,,83.331787109375,17.728617
011,DELHI/NCR,AY31,"North Avenue (Ayur)",NA,3,ayurvedic,23092794,77.199165344238,28.618547
011,DELHI/NCR,AY65,"AYURVEDIC WC MEHRAULI BADARPUR",NA,3,ayurvedic,011-29564988,77.220932006836,28.52314
011,DELHI/NCR,AY9,"AYURVEDIC WC LODHI ROAD I(ALI GANJ)",NA,10,ayurvedic,,77.218933105469,28.583834
011,DELHI/NCR,D19,"Dev Nagar",NA,3,alopathic,25860275,77.184028625488,28.654448
011,DELHI/NCR,D23,"Chanakya Puri",NA,10,alopathic,"24673777 24122518",77.208633422852,28.569805
011,DELHI/NCR,D24,"KASTURBA NAGAR-I",NA,2,alopathic,011-24622867,77.224449157715,28.577652
011,DELHI/NCR,D31,"North Avenue",NA,8,alopathic,23094420,77.199653625488,28.622715
011,DELHI/NCR,D32,"South Avenue",NA,6,alopathic,23013490,77.199737548828,28.60824
011,DELHI/NCR,D37,"Sriniwas Puri",NA,4,alopathic,011-26910251,77.256156921387,28.564219
011,DELHI/NCR,D39,"Andrews Ganj",NA,4,alopathic,011-26257628,77.231430053711,28.565308
011,DELHI/NCR,D41,"Malviya Nagar",NA,5,alopathic,011-26671494,77.211715698242,28.53425
011,DELHI/NCR,D48,"Hari Nagar",NA,7,alopathic,28125518,77.104423522949,28.624546
011,DELHI/NCR,D53,"Rajouri Garden",NA,5,alopathic,25171213,77.112274169922,28.645285
011,DELHI/NCR,D58,"Nangal Raya",NA,4,alopathic,28521863,77.098762512207,28.611599
011,DELHI/NCR,D63,"Sadiq Nagar",NA,7,alopathic,011-26255516,77.226783752441,28.554974
011,DELHI/NCR,D64,"Tri Nagar",NA,2,alopathic,27385025,77.160575866699,28.67423
011,DELHI/NCR,D69,"RK Puram VI,Sec 3",NA,4,alopathic,011-26173911,77.179023742676,28.55421
011,DELHI/NCR,D7,Timarpur,NA,7,alopathic,011-23813808,77.221290588379,28.706646
011,DELHI/NCR,D73,GURGAON,NA,9,alopathic,0124-4064496,77.021324157715,28.482607
011,DELHI/NCR,D75,KALKAJI-II,NA,4,alopathic,011-26028746,77.251976013184,28.531225
011,DELHI/NCR,D78,"DAKSHINPURI(PUSHP VIHAR)",NA,6,alopathic,011-29563193,77.22632598877,28.523653
011,DELHI/NCR,D89,Rohini-16,NA,6,alopathic,27894403,77.119651794434,28.704538
011,DELHI/NCR,HO76,"Kalibari (Homeo)",NA,3,homeo,23364574,77.200057983398,28.629055
011,DELHI/NCR,HO78,"HOMEOPATHIC WC PUSHP VIHAR",NA,1,homeo,011-29563193,77.227439880371,28.523434
011,DELHI/NCR,SA1,"SIDHA WC LODHI ROAD",NA,1,siddha,,77.22452545166,28.582287
011,DELHI/NCR,UN13,"Sarojini Nagar Unani",NA,3,unani,011-24673551,77.201316833496,28.576881
011,DELHI/NCR,UN28,"Darya Ganj Unani",NA,1,unani,011-23273043,77.235252380371,28.657492
011,DELHI/NCR,UN32,"South Avenue (Unani)",NA,2,unani,23015125,77.199737548828,28.60824
0121,MEERUT,MR5,"S K Road",NA,6,alopathic,0121-2763159,77.720962524414,28.974173
0135,DHERADUN,DD1,"CGHS Milan Vihar Wellness Centre",NA,2,alopathic,0135-2726820,78.039535522461,30.328388
0172,CHANDIGARH,CG1,Chandigarh,NA,4,alopathic,0172-2630692,76.760932922363,30.70427
0177,SHIMLA,SL1,SHIMLA,NA,2,alopathic,,77.147415161133,31.103388
020,PUNE,PU02,Phulenagar,NA,5,alopathic,020-26685960,73.821502685547,18.551428
020,PUNE,PUH5,"Homeopathic Boys battalion Pune",NA,1,homeo,,73.819808959961,18.551321
022,MUMBAI,MU13,"CBD Belapur",NA,6,alopathic,022–27522287,73.028305053711,19.026836
022,MUMBAI,MU15,Deonar,NA,2,alopathic,022–25512137,72.91854095459,19.045315
022,MUMBAI,MU2,"Peddar Road",NA,1,alopathic,022–23516680,72.810279846191,18.972956
022,MUMBAI,MU22,"Sheikh Mistry, Koliwada",NA,9,alopathic,022–24015758,72.86833190918,19.02878
022,MUMBAI,MU7,WADALA,NA,4,alopathic,022–24124515,72.855796813965,19.017803
033,KOLKATA,KO1,Belvedere,NA,2,alopathic,24791153,88.346549987793,22.52668
033,KOLKATA,KO15,Tollygunj,NA,4,alopathic,24116059,88.35319519043,22.489405
033,KOLKATA,KO4,Narkeldanga,NA,3,alopathic,23203998,88.39266204834,22.573692
033,KOLKATA,KO8,"Bidhan Sarani",NA,3,alopathic,25558034,88.367286682129,22.699827
0361,GUWAHATI,GT1,Hengrabari,NA,6,alopathic,0361-2269743+919435195800,94.091903686523,25.665863
0361,GUWAHATI,GT4,Panbazar,NA,4,alopathic,0361-2540551,91.745620727539,26.185768
0364,SHILLONG,SH2,"Wellness Centre Opp. Raj Bhawan",NA,2,alopathic,0364-2504451,91.886840820312,25.5722
0389,AIZWAL,AZ1,AiZwal,NA,1,alopathic,,92.71346282959,23.721273
040,HYDERABAD,HY1,Charminar,NA,3,alopathic,040-24525415,78.486175537109,17.373007
040,HYDERABAD,HY11,Kakatiyanagar,NA,5,alopathic,040-23002454,78.356460571289,17.438862
040,HYDERABAD,HY6,Kachiguda,NA,4,alopathic,040-2473901,78.487945556641,17.386848
044,CHENNAI,CH04,GOPALAPURAM,NA,2,alopathic,044-23458404,80.261512756348,13.04461
044,CHENNAI,CH06,"KK NAGAR",NA,16,alopathic,044-23458406,80.207878112793,13.036907
044,CHENNAI,CH09,NUNGAMBAKKAM,NA,2,alopathic,044-23458409,80.248046875,13.066692
044,CHENNAI,CH14,VEPERY,NA,2,alopathic,044-23458414,80.240783691406,13.079123
0471,TRIVANDRUM,TR3,Vanchiyoor,NA,3,alopathic, 0471-2471143,76.94612121582,8.533302
0512,KANPUR,KN2,"R. K. NAGAR",NA,3,alopathic,0512-2542379,80.319633483887,26.470814
0512,KANPUR,KN3,"Civil Lines",NA,2,alopathic,0512-2306876,80.34627532959,26.475863
0512,KANPUR,KN7,"Pandu Nagar",NA,4,alopathic,0512-2217339,80.29418182373,26.472935
0522,LUCKNOW,LK6,Lucknow6,NA,7,alopathic,0522-2745246,80.94458770752,26.904528
0522,LUCKNOW,LK9,Aishbagh,NA,2,alopathic,0522-2251392,80.90119934082,26.848011
0532,ALLAHABAD,AL07,Naini,NA,2,alopathic,0532-2697132,81.869728088379,25.39662
0612,PATNA,PA3,"Salimpur Dumra",NA,7,alopathic,0612-2582998,85.084213256836,25.617695
0651,RANCHI,RA1,"NEW AG COLONY, DORANDA",NA,4,alopathic,0651-2481901,85.31861114502,23.343538
0651,RANCHI,RA3,"P and T COLONY LALPUR",NA,2,alopathic,0651-2562333,85.340263366699,23.374857
0674,BHUBANESHWAR,BH3,"PMG Square",NA,2,alopathic,"0755- 2566977",85.835983276367,20.274715
0712,NAGPUR,NP2,"Civil Lines",NA,2,alopathic,0712-2560310,79.057464599609,21.158367
0712,NAGPUR,NP8,"Sai Mandir",NA,3,alopathic,"0712- 2226516",79.069778442383,21.112846
0761,JABALPUR,JB3,"Westland OFK-Extn. Counter of Wellness Centre no. 3",NA,4,alopathic,2430018,79.985572814941,23.188099
0761,JABALPUR,JB5,"CGHS WC 5 JABALPUR",NA,2,alopathic,,80.011009216309,23.204065
079,AHMEDABAD,AH02,Shahalam,NA,2,alopathic,"079 25393262",72.591529846191,22.999426
079,AHMEDABAD,AH10,Bopal,NA,2,alopathic,02717-243144,72.476913452148,23.026167
080,BENGALURU,BA01,"Wellness Center Shivajinagar",NA,5,alopathic,080-25588777,77.603363037109,12.980318
080,BENGALURU,BA08,"Wellness Center Domlur",NA,6,alopathic,"080 25355662",77.642333984375,12.959418
